OBJECT_NAME,OBJECT_ID,EPOCH,MEAN_MOTION,ECCENTRICITY,INCLINATION,RA_OF_ASC_NODE,ARG_OF_PERICENTER,MEAN_ANOMALY,EPHEMERIS_TYPE,CLASSIFICATION_TYPE,NORAD_CAT_ID,ELEMENT_SET_NO,REV_AT_EPOCH,BSTAR,MEAN_MOTION_DOT,MEAN_MOTION_DDOT
ONEWEB-0372,2021-090V,2026-04-26T11:53:06.722016,13.20761801,.000178,87.9142,284.7566,93.2874,266.8463,0,U,49298,999,22301,.55948E-2,.2288E-4,0
ONEWEB-0373,2021-090W,2026-04-26T10:42:50.920416,13.20770072,.0001729,87.9142,284.7686,97.1575,262.9755,0,U,49299,999,22419,-.46026E-4,-.6E-7,0
ONEWEB-0374,2021-090X,2026-04-26T12:15:39.085920,13.14503329,.0002035,87.8927,300.0101,108.9535,251.1815,0,U,49300,999,22077,.25064E-3,.106E-5,0
ONEWEB-0375,2021-090Y,2026-04-26T10:24:39.003264,13.20769625,.0001871,87.9144,284.7613,111.6040,248.5293,0,U,49301,999,22369,.73033E-4,.43E-6,0
ONEWEB-0376,2021-090Z,2026-04-26T11:32:59.038368,13.19725512,.0001885,87.9161,315.2744,82.4138,277.7209,0,U,49302,999,21963,.92257E-4,.5E-6,0
ONEWEB-0377,2021-090AA,2026-04-26T11:53:30.640128,13.20770870,.0001562,87.9144,284.7505,97.8561,262.2749,0,U,49303,999,22369,.45173E-3,.197E-5,0
ONEWEB-0378,2021-090AB,2026-04-26T12:25:17.992704,13.20769552,.0001859,87.9140,284.7542,98.5076,261.6269,0,U,49304,999,22296,.11186E-3,.58E-6,0
ONEWEB-0379,2021-090AC,2026-04-26T12:08:48.450048,13.14502819,.0001817,87.8929,300.0220,94.8972,265.2365,0,U,49305,999,22077,.67432E-3,.263E-5,0
ONEWEB-0380,2021-090AD,2026-04-26T13:17:35.829024,13.19724011,.0001621,87.9155,315.2697,94.4804,265.6514,0,U,49306,999,21961,.39124E-4,.29E-6,0
ONEWEB-0381,2021-090AE,2026-04-26T11:48:44.034048,13.20773388,.0001857,87.9142,284.7556,102.9427,257.1914,0,U,49307,999,22300,.18682E-3,.89E-6,0
ONEWEB-0382,2021-090AF,2026-04-26T11:30:33.314400,13.20773430,.0001985,87.9142,284.7536,102.6676,257.4680,0,U,49308,999,22299,.25209E-3,.115E-5,0
ONEWEB-0383,2021-090AG,2026-04-26T11:59:40.787232,13.14502239,.0001906,87.8936,300.0111,94.1429,265.9918,0,U,49309,999,22080,.62673E-3,.245E-5,0
ONEWEB-0384,2021-090AH,2026-04-26T11:16:08.920416,13.20810455,.0002208,87.9144,284.7988,104.0350,256.1029,0,U,49310,999,22300,.81754E-4,.46E-6,0
ONEWEB-0385,2021-090AJ,2026-04-26T11:19:12.098784,13.20770076,.0001886,87.9142,284.7597,99.8277,260.3069,0,U,49311,999,22297,.14E-3,.7E-6,0
ONEWEB-0386,2021-090AK,2026-04-26T11:44:11.887008,13.20769503,.0001991,87.9153,284.7444,99.6475,260.4883,0,U,49312,999,22299,.16351E-3,.79E-6,0
ONEWEB-0387,2021-090AL,2026-04-26T11:21:28.697184,13.20770647,.0001623,87.9131,284.7773,104.8881,255.2432,0,U,49313,999,22299,.18571E-3,.88E-6,0
ONEWEB-0388,2021-090AM,2026-04-26T11:21:35.947008,13.19723880,.000187,87.9153,315.2836,91.8339,268.3008,0,U,49314,999,21959,-.70362E-4,-.15E-6,0
2021-091B,2021-091B,2026-04-26T12:37:32.747808,15.18280380,.001248,97.4491,304.8947,215.3622,144.6786,0,U,49316,999,25114,.13841E-3,.2773E-4,0
SHIJIAN-21 (SJ-21),2021-094A,2026-04-25T23:35:00.811392,1.00278841,.004822,4.9920,61.4729,168.9940,105.0322,0,U,49330,999,483,0,-.358E-5,0
SES-17,2021-095A,2026-04-26T11:32:14.188992,1.00273036,.0000632,0.0424,55.8137,351.5384,273.0912,0,U,49332,999,1733,0,-.285E-5,0
SYRACUSE 4A,2021-095B,2026-04-26T12:04:18.614208,1.00269630,.0001683,0.0148,259.3593,136.5263,45.1954,0,U,49333,999,1742,0,0,0
QZS-1R (MICHIBIKI-1R),2021-096A,2026-04-26T05:27:38.806272,1.00273172,.0751304,37.3584,80.3474,270.8364,80.6600,0,U,49336,999,1649,0,-.233E-5,0
JILIN-1 GAOFEN 2F,2021-097A,2026-04-26T12:42:06.984864,15.07391306,.0019781,97.6620,242.8963,47.2057,313.0830,0,U,49338,999,24853,.2829E-3,.4235E-4,0
YAOGAN-32 02A,2021-099A,2026-04-26T12:08:57.885792,14.64129933,.0001917,98.2393,250.2720,60.3163,299.8230,0,U,49383,999,23880,.17152E-3,.853E-5,0
YAOGAN-32 02B,2021-099B,2026-04-26T12:08:49.007328,14.64131451,.0001745,98.2384,250.2848,82.1204,278.0196,0,U,49384,999,23880,.16744E-3,.832E-5,0
SDGSAT 1,2021-100A,2026-04-26T13:06:04.324896,15.19658631,.0009705,97.2685,165.4064,110.2281,249.9999,0,U,49387,999,24807,.3029E-3,.6403E-4,0
YAOGAN-35 01A,2021-101A,2026-04-26T13:21:19.324224,15.25850686,.0005855,34.9903,242.2610,269.3598,90.6446,0,U,49390,999,24898,.40207E-3,.10532E-3,0
YAOGAN-35 01C,2021-101D,2026-04-26T11:55:22.550592,15.22921049,.0009163,35.0038,229.9971,272.5962,87.3704,0,U,49393,999,24912,.53785E-3,.12926E-3,0
TEIKYOSAT-4 (OORURI),2021-102B,2026-04-26T08:18:04.120128,15.09318914,.00137,97.3720,147.8399,109.4470,250.8241,0,U,49396,999,24490,.12767E-3,.1979E-4,0
RAISE 2,2021-102C,2026-04-26T08:25:39.967392,15.20883951,.0010588,97.3309,150.7509,104.9341,255.3067,0,U,49397,999,24555,.32956E-3,.7228E-4,0
Z-SAT,2021-102E,2026-04-26T12:29:03.493248,15.17856222,.0018375,97.3379,153.4144,69.9992,290.3219,0,U,49399,999,24560,.20793E-3,.4162E-4,0
