ONEWEB-0372             
1 49298U 21090V   26116.49521669  .00002288  00000+0  55948-2 0  9994
2 49298  87.9142 284.7566 0001780  93.2874 266.8463 13.20761801223014
ONEWEB-0373             
1 49299U 21090W   26116.44642269 -.00000006  00000+0 -46026-4 0  9997
2 49299  87.9142 284.7686 0001729  97.1575 262.9755 13.20770072224193
ONEWEB-0374             
1 49300U 21090X   26116.51086905  .00000106  00000+0  25064-3 0  9994
2 49300  87.8927 300.0101 0002035 108.9535 251.1815 13.14503329220777
ONEWEB-0375             
1 49301U 21090Y   26116.43378476  .00000043  00000+0  73033-4 0  9993
2 49301  87.9144 284.7613 0001871 111.6040 248.5293 13.20769625223699
ONEWEB-0376             
1 49302U 21090Z   26116.48123887  .00000050  00000+0  92257-4 0  9990
2 49302  87.9161 315.2744 0001885  82.4138 277.7209 13.19725512219637
ONEWEB-0377             
1 49303U 21090AA  26116.49549352  .00000197  00000+0  45173-3 0  9997
2 49303  87.9144 284.7505 0001562  97.8561 262.2749 13.20770870223694
ONEWEB-0378             
1 49304U 21090AB  26116.51756936  .00000058  00000+0  11186-3 0  9992
2 49304  87.9140 284.7542 0001859  98.5076 261.6269 13.20769552222964
ONEWEB-0379             
1 49305U 21090AC  26116.50611632  .00000263  00000+0  67432-3 0  9998
2 49305  87.8929 300.0220 0001817  94.8972 265.2365 13.14502819220770
ONEWEB-0380             
1 49306U 21090AD  26116.55388691  .00000029  00000+0  39124-4 0  9998
2 49306  87.9155 315.2697 0001621  94.4804 265.6514 13.19724011219618
ONEWEB-0381             
1 49307U 21090AE  26116.49217632  .00000089  00000+0  18682-3 0  9999
2 49307  87.9142 284.7556 0001857 102.9427 257.1914 13.20773388223007
ONEWEB-0382             
1 49308U 21090AF  26116.47955225  .00000115  00000+0  25209-3 0  9998
2 49308  87.9142 284.7536 0001985 102.6676 257.4680 13.20773430222999
ONEWEB-0383             
1 49309U 21090AG  26116.49977763  .00000245  00000+0  62673-3 0  9992
2 49309  87.8936 300.0111 0001906  94.1429 265.9918 13.14502239220801
ONEWEB-0384             
1 49310U 21090AH  26116.46954769  .00000046  00000+0  81754-4 0  9993
2 49310  87.9144 284.7988 0002208 104.0350 256.1029 13.20810455223004
ONEWEB-0385             
1 49311U 21090AJ  26116.47166781  .00000070  00000+0  14000-3 0  9990
2 49311  87.9142 284.7597 0001886  99.8277 260.3069 13.20770076222979
ONEWEB-0386             
1 49312U 21090AK  26116.48902647  .00000079  00000+0  16351-3 0  9991
2 49312  87.9153 284.7444 0001991  99.6475 260.4883 13.20769503222998
ONEWEB-0387             
1 49313U 21090AL  26116.47324881  .00000088  00000+0  18571-3 0  9995
2 49313  87.9131 284.7773 0001623 104.8881 255.2432 13.20770647222995
ONEWEB-0388             
1 49314U 21090AM  26116.47333272 -.00000015  00000+0 -70362-4 0  9999
2 49314  87.9153 315.2836 0001870  91.8339 268.3008 13.19723880219598
2021-091B               
1 49316U 21091B   26116.52607347  .00002773  00000+0  13841-3 0  9994
2 49316  97.4491 304.8947 0012480 215.3622 144.6786 15.18280380251145
SHIJIAN-21 (SJ-21)      
1 49330U 21094A   26115.98264828 -.00000358  00000+0  00000+0 0  9992
2 49330   4.9920  61.4729 0048220 168.9940 105.0322  1.00278841  4836
SES-17                  
1 49332U 21095A   26116.48071978 -.00000285  00000+0  00000+0 0  9992
2 49332   0.0424  55.8137 0000632 351.5384 273.0912  1.00273036 17332
SYRACUSE 4A             
1 49333U 21095B   26116.50299322  .00000000  00000+0  00000+0 0  9995
2 49333   0.0148 259.3593 0001683 136.5263  45.1954  1.00269630 17426
QZS-1R (MICHIBIKI-1R)   
1 49336U 21096A   26116.22753248 -.00000233  00000+0  00000+0 0  9999
2 49336  37.3584  80.3474 0751304 270.8364  80.6600  1.00273172 16496
JILIN-1 GAOFEN 2F       
1 49338U 21097A   26116.52924751  .00004235  00000+0  28290-3 0  9994
2 49338  97.6620 242.8963 0019781  47.2057 313.0830 15.07391306248539
YAOGAN-32 02A           
1 49383U 21099A   26116.50622553  .00000853  00000+0  17152-3 0  9996
2 49383  98.2393 250.2720 0001917  60.3163 299.8230 14.64129933238804
YAOGAN-32 02B           
1 49384U 21099B   26116.50612277  .00000832  00000+0  16744-3 0  9992
2 49384  98.2384 250.2848 0001745  82.1204 278.0196 14.64131451238801
SDGSAT 1                
1 49387U 21100A   26116.54588339  .00006403  00000+0  30290-3 0  9995
2 49387  97.2685 165.4064 0009705 110.2281 249.9999 15.19658631248079
YAOGAN-35 01A           
1 49390U 21101A   26116.55647366  .00010532  00000+0  40207-3 0  9994
2 49390  34.9903 242.2610 0005855 269.3598  90.6446 15.25850686248983
YAOGAN-35 01C           
1 49393U 21101D   26116.49678878  .00012926  00000+0  53785-3 0  9996
2 49393  35.0038 229.9971 0009163 272.5962  87.3704 15.22921049249122
TEIKYOSAT-4 (OORURI)    
1 49396U 21102B   26116.34588102  .00001979  00000+0  12767-3 0  9995
2 49396  97.3720 147.8399 0013700 109.4470 250.8241 15.09318914244900
RAISE 2                 
1 49397U 21102C   26116.35115703  .00007228  00000+0  32956-3 0  9995
2 49397  97.3309 150.7509 0010588 104.9341 255.3067 15.20883951245557
Z-SAT                   
1 49399U 21102E   26116.52017932  .00004162  00000+0  20793-3 0  9991
2 49399  97.3379 153.4144 0018375  69.9992 290.3219 15.17856222245606
